[{"OBJECT_NAME":"STARLINK-4636","OBJECT_ID":"2022-107AH","EPOCH":"2026-03-09T21:32:58.902144","MEAN_MOTION":15.11900784,"ECCENTRICITY":0.00053969,"INCLINATION":53.213,"RA_OF_ASC_NODE":252.5823,"ARG_OF_PERICENTER":143.7657,"MEAN_ANOMALY":216.3703,"EPHEMERIS_TYPE":0,"CLASSIFICATION_TYPE":"U","NORAD_CAT_ID":53731,"ELEMENT_SET_NO":999,"REV_AT_EPOCH":19462,"BSTAR":0.0016595438,"MEAN_MOTION_DOT":0.00028566,"MEAN_MOTION_DDOT":0},{"OBJECT_NAME":"XRISM","OBJECT_ID":"2023-137A","EPOCH":"2026-03-09T21:42:52.202304","MEAN_MOTION":15.11505182,"ECCENTRICITY":0.00080041,"INCLINATION":31.0015,"RA_OF_ASC_NODE":282.2731,"ARG_OF_PERICENTER":40.7626,"MEAN_ANOMALY":319.361,"EPHEMERIS_TYPE":0,"CLASSIFICATION_TYPE":"U","NORAD_CAT_ID":57800,"ELEMENT_SET_NO":999,"REV_AT_EPOCH":13782,"BSTAR":0.00036815988,"MEAN_MOTION_DOT":6.492e-5,"MEAN_MOTION_DDOT":0}]
